[{"OBJECT_NAME":"STARLINK-33654","OBJECT_ID":"2025-070G","EPOCH":"2026-03-09T12:59:29.196096","MEAN_MOTION":15.27597063,"ECCENTRICITY":9.59e-5,"INCLINATION":42.9983,"RA_OF_ASC_NODE":260.6446,"ARG_OF_PERICENTER":260.8354,"MEAN_ANOMALY":99.2389,"EPHEMERIS_TYPE":0,"CLASSIFICATION_TYPE":"U","NORAD_CAT_ID":63466,"ELEMENT_SET_NO":999,"REV_AT_EPOCH":5295,"BSTAR":0.00097146122,"MEAN_MOTION_DOT":0.00026581,"MEAN_MOTION_DDOT":0},{"OBJECT_NAME":"COSMOS 2251 DEB","OBJECT_ID":"1993-036N","EPOCH":"2026-03-09T20:39:34.848000","MEAN_MOTION":15.17003756,"ECCENTRICITY":0.00564486,"INCLINATION":74.0035,"RA_OF_ASC_NODE":352.1163,"ARG_OF_PERICENTER":60.1769,"MEAN_ANOMALY":300.5022,"EPHEMERIS_TYPE":0,"CLASSIFICATION_TYPE":"U","NORAD_CAT_ID":33765,"ELEMENT_SET_NO":999,"REV_AT_EPOCH":90936,"BSTAR":0.0026022202,"MEAN_MOTION_DOT":0.00053945,"MEAN_MOTION_DDOT":0}]
